COSMOS 2251 DEB         
1 36367U 93036AYU 17345.61599403 -.00000092  00000-0 -53254-4 0  9999
2 36367  74.0989  74.7235 0281340 122.3935 240.4746 13.78098676171938
